OBJECT_NAME,OBJECT_ID,EPOCH,MEAN_MOTION,ECCENTRICITY,INCLINATION,RA_OF_ASC_NODE,ARG_OF_PERICENTER,MEAN_ANOMALY,EPHEMERIS_TYPE,CLASSIFICATION_TYPE,NORAD_CAT_ID,ELEMENT_SET_NO,REV_AT_EPOCH,BSTAR,MEAN_MOTION_DOT,MEAN_MOTION_DDOT
STARLINK-2231,2021-041AA,2024-08-23T11:12:47.028672,15.06384680,.0001064,53.0525,140.2905,84.7839,275.3271,0,U,48577,999,18030,.21423E-2,.31759E-3,0
STARLINK-2232,2021-041AB,2024-08-24T03:13:30.623808,15.06444334,.0001449,53.0528,137.5373,83.5760,276.5394,0,U,48578,999,18085,.21737E-2,.32283E-3,0
STARLINK-2234,2021-041AD,2024-08-23T22:16:52.231584,15.06412335,.0001592,53.0527,112.9614,89.5139,270.6032,0,U,48580,999,18118,.15585E-2,.23016E-3,0
STARLINK-2235,2021-041AE,2024-08-23T20:00:01.999872,15.06447033,.0001792,53.0522,103.3883,85.4711,334.0301,0,U,48581,999,18131,-.65552E-2,-.96728E-3,0
STARLINK-2236,2021-041AF,2024-08-23T22:28:50.255328,15.06404573,.0001589,53.0530,103.0786,96.7231,263.3939,0,U,48582,999,18131,.12605E-2,.18546E-3,0
STARLINK-2237,2021-041AG,2024-08-23T11:27:19.694592,15.06399069,.0001604,53.0532,149.9778,100.9214,259.1955,0,U,48583,999,18062,.19958E-2,.2957E-3,0
STARLINK-2238,2021-041AH,2024-08-24T04:21:04.657824,15.06449340,.0001461,53.0533,146.8189,84.7226,275.3930,0,U,48584,999,18067,.16401E-2,.24265E-3,0
STARLINK-2240,2021-041AJ,2024-08-24T01:25:56.631936,15.06421275,.0001333,53.0531,147.3630,89.5330,270.5812,0,U,48585,999,18065,.19423E-2,.28784E-3,0
STARLINK-2241,2021-041AK,2024-08-24T01:15:19.921824,15.06439052,.0001264,53.0529,147.3987,94.4165,265.6968,0,U,48586,999,18065,.1506E-2,.22245E-3,0
STARLINK-2242,2021-041AL,2024-08-24T02:56:10.379040,15.06384561,.0001541,53.0528,147.0815,97.3911,262.7253,0,U,48587,999,18066,.19548E-2,.28943E-3,0
STARLINK-2244,2021-041AM,2024-08-24T00:55:25.846176,15.06453753,.0001218,53.0527,137.4965,103.7336,256.3788,0,U,48588,999,18084,.19671E-2,.29183E-3,0
STARLINK-2245,2021-041AN,2024-08-24T03:55:53.228064,15.06430008,.0001514,53.0528,136.8965,85.3445,274.7717,0,U,48589,999,18086,.20552E-2,.30488E-3,0
STARLINK-2249,2021-041AR,2024-08-24T01:04:45.232608,15.06445315,.0001343,53.0535,147.6636,88.7497,271.3646,0,U,48592,999,18055,.20179E-2,.2994E-3,0
STARLINK-2250,2021-041AS,2024-08-24T03:54:33.679584,15.06446219,.0001665,53.0538,146.8979,88.0370,272.0810,0,U,48593,999,18057,.17536E-2,.25968E-3,0
STARLINK-2251,2021-041AT,2024-08-23T15:51:22.966272,15.06400974,.0001439,53.0540,119.2405,88.4395,271.6758,0,U,48594,999,18107,-.15371E-3,-.257E-4,0
STARLINK-2252,2021-041AU,2024-08-23T11:32:38.377536,15.06396799,.0001706,53.0526,149.9593,87.0387,273.0798,0,U,48595,999,18144,.19941E-2,.29543E-3,0
STARLINK-2253,2021-041AV,2024-08-23T12:04:28.916544,15.06400176,.0001488,53.0533,149.8594,89.7339,270.3821,0,U,48596,999,18063,.20935E-2,.31039E-3,0
STARLINK-2255,2021-041AW,2024-08-24T00:59:24.362016,15.06452931,.000123,53.0534,147.4482,93.0401,267.0728,0,U,48597,999,18152,.18279E-2,.27089E-3,0
STARLINK-2275,2021-041AZ,2024-08-24T01:00:45.995328,15.06404418,.0001752,53.0525,137.4403,71.2343,288.8835,0,U,48600,999,18166,.31677E-2,.47224E-3,0
STARLINK-2713,2021-041BB,2024-08-23T02:37:13.568448,15.06389336,.0001473,53.0550,126.6310,131.9827,228.1287,0,U,48602,999,18172,-.65419E-4,-.1255E-4,0
STARLINK-2714,2021-041BC,2024-08-23T21:13:46.838496,15.06460448,.0001469,53.0526,118.1507,81.6226,278.4930,0,U,48603,999,18192,.26022E-2,.38756E-3,0
STARLINK-2757,2021-041BD,2024-08-24T03:38:37.606560,15.06455753,.0001309,53.0525,146.9479,85.2023,274.9115,0,U,48604,999,18154,.19298E-2,.28623E-3,0
STARLINK-2739,2021-044B,2024-08-23T21:22:27.089184,15.06417124,.000133,53.0525,123.1290,104.1167,255.9970,0,U,48639,999,17985,.34894E-3,.4922E-4,0
STARLINK-2736,2021-044C,2024-08-24T01:58:30.872064,15.06416103,.0001689,53.0522,122.5426,95.4427,264.6754,0,U,48640,999,17981,.18548E-2,.27466E-3,0
STARLINK-2754,2021-044D,2024-08-23T10:20:59.442720,15.06392851,.0001669,53.0522,130.1840,76.0880,284.0294,0,U,48641,999,17971,.21767E-2,.32283E-3,0
STARLINK-2646,2021-044E,2024-08-24T02:37:36.682176,15.06427504,.0001763,53.0531,127.1482,86.2894,273.8297,0,U,48642,999,17975,.19817E-2,.29382E-3,0
STARLINK-2704,2021-044F,2024-08-23T10:14:19.804704,15.06403590,.0000977,53.0520,130.1926,71.5557,288.5538,0,U,48643,999,17881,.22962E-2,.3409E-3,0
