STARLINK-2231           
1 48577U 21041AA  24236.46721098  .00031759  00000+0  21423-2 0  9991
2 48577  53.0525 140.2905 0001064  84.7839 275.3271 15.06384680180304
STARLINK-2232           
1 48578U 21041AB  24237.13438222  .00032283  00000+0  21737-2 0  9992
2 48578  53.0528 137.5373 0001449  83.5760 276.5394 15.06444334180855
STARLINK-2234           
1 48580U 21041AD  24236.92838231  .00023016  00000+0  15585-2 0  9993
2 48580  53.0527 112.9614 0001592  89.5139 270.6032 15.06412335181184
STARLINK-2235           
1 48581U 21041AE  24236.83335648 -.00096728  00000+0 -65552-2 0  9999
2 48581  53.0522 103.3883 0001792  85.4711 334.0301 15.06447033181317
STARLINK-2236           
1 48582U 21041AF  24236.93669277  .00018546  00000+0  12605-2 0  9990
2 48582  53.0530 103.0786 0001589  96.7231 263.3939 15.06404573181315
STARLINK-2237           
1 48583U 21041AG  24236.47731128  .00029570  00000+0  19958-2 0  9992
2 48583  53.0532 149.9778 0001604 100.9214 259.1955 15.06399069180622
STARLINK-2238           
1 48584U 21041AH  24237.18130391  .00024265  00000+0  16401-2 0  9993
2 48584  53.0533 146.8189 0001461  84.7226 275.3930 15.06449340180675
STARLINK-2240           
1 48585U 21041AJ  24237.05968324  .00028784  00000+0  19423-2 0  9992
2 48585  53.0531 147.3630 0001333  89.5330 270.5812 15.06421275180659
STARLINK-2241           
1 48586U 21041AK  24237.05231391  .00022245  00000+0  15060-2 0  9999
2 48586  53.0529 147.3987 0001264  94.4165 265.6968 15.06439052180655
STARLINK-2242           
1 48587U 21041AL  24237.12234235  .00028943  00000+0  19548-2 0  9994
2 48587  53.0528 147.0815 0001541  97.3911 262.7253 15.06384561180661
STARLINK-2244           
1 48588U 21041AM  24237.03849359  .00029183  00000+0  19671-2 0  9998
2 48588  53.0527 137.4965 0001218 103.7336 256.3788 15.06453753180846
STARLINK-2245           
1 48589U 21041AN  24237.16381051  .00030488  00000+0  20552-2 0  9993
2 48589  53.0528 136.8965 0001514  85.3445 274.7717 15.06430008180862
STARLINK-2249           
1 48592U 21041AR  24237.04496797  .00029940  00000+0  20179-2 0  9994
2 48592  53.0535 147.6636 0001343  88.7497 271.3646 15.06445315180550
STARLINK-2250           
1 48593U 21041AS  24237.16288981  .00025968  00000+0  17536-2 0  9991
2 48593  53.0538 146.8979 0001665  88.0370 272.0810 15.06446219180572
STARLINK-2251           
1 48594U 21041AT  24236.66068248 -.00002570  00000+0 -15371-3 0  9990
2 48594  53.0540 119.2405 0001439  88.4395 271.6758 15.06400974181074
STARLINK-2252           
1 48595U 21041AU  24236.48099974  .00029543  00000+0  19941-2 0  9994
2 48595  53.0526 149.9593 0001706  87.0387 273.0798 15.06396799181440
STARLINK-2253           
1 48596U 21041AV  24236.50311246  .00031039  00000+0  20935-2 0  9995
2 48596  53.0533 149.8594 0001488  89.7339 270.3821 15.06400176180634
STARLINK-2255           
1 48597U 21041AW  24237.04125419  .00027089  00000+0  18279-2 0  9999
2 48597  53.0534 147.4482 0001230  93.0401 267.0728 15.06452931181523
STARLINK-2275           
1 48600U 21041AZ  24237.04219902  .00047224  00000+0  31677-2 0  9995
2 48600  53.0525 137.4403 0001752  71.2343 288.8835 15.06404418181664
STARLINK-2713           
1 48602U 21041BB  24236.10918482 -.00001255  00000+0 -65419-4 0  9991
2 48602  53.0550 126.6310 0001473 131.9827 228.1287 15.06389336181728
STARLINK-2714           
1 48603U 21041BC  24236.88456989  .00038756  00000+0  26022-2 0  9995
2 48603  53.0526 118.1507 0001469  81.6226 278.4930 15.06460448181924
STARLINK-2757           
1 48604U 21041BD  24237.15182415  .00028623  00000+0  19298-2 0  9996
2 48604  53.0525 146.9479 0001309  85.2023 274.9115 15.06455753181546
STARLINK-2739           
1 48639U 21044B   24236.89059131  .00004922  00000+0  34894-3 0  9991
2 48639  53.0525 123.1290 0001330 104.1167 255.9970 15.06417124179855
STARLINK-2736           
1 48640U 21044C   24237.08230176  .00027466  00000+0  18548-2 0  9990
2 48640  53.0522 122.5426 0001689  95.4427 264.6754 15.06416103179815
STARLINK-2754           
1 48641U 21044D   24236.43124355  .00032283  00000+0  21767-2 0  9990
2 48641  53.0522 130.1840 0001669  76.0880 284.0294 15.06392851179714
STARLINK-2646           
1 48642U 21044E   24237.10945234  .00029382  00000+0  19817-2 0  9992
2 48642  53.0531 127.1482 0001763  86.2894 273.8297 15.06427504179753
STARLINK-2704           
1 48643U 21044F   24236.42661811  .00034090  00000+0  22962-2 0  9990
2 48643  53.0520 130.1926 0000977  71.5557 288.5538 15.06403590178814
